{
  "type": "FeatureCollection",
  "features": [
    {
      "type": "Feature",
      "properties": {
        "norad_id": 30860,
        "name": "FENGYUN 1C DEB",
        "group": "fengyun-1c-debris",
        "lat": 17.78312049712826,
        "lon": -101.9961410966918,
        "alt_km": 778.9734737396138,
        "timestamp": "2025-12-27T10:28:59.073679+00:00",
        "meta_object_name": "FENGYUN 1C DEB",
        "meta_object_id": "1999-025AWW",
        "meta_epoch": "2025-12-27T04:40:28.427808",
        "meta_mean_motion": 14.25602041,
        "meta_eccentricity": 0.0040137,
        "meta_inclination": 98.9041,
        "meta_ra_of_asc_node": 74.876,
        "meta_arg_of_pericenter": 147.3321,
        "meta_mean_anomaly": 213.0352,
        "meta_ephemeris_type": 0,
        "meta_classification_type": "U",
        "meta_norad_cat_id": 30860,
        "meta_element_set_no": 999,
        "meta_rev_at_epoch": 96722,
        "meta_bstar": 0.0017997,
        "meta_mean_motion_dot": 4.254e-05,
        "meta_mean_motion_ddot": 0,
        "tle_line1": "1 30860U 99025AWW 25361.19477347  .00004254  00000+0  17997-2 0  9990",
        "tle_line2": "2 30860  98.9041  74.8760 0040137 147.3321 213.0352 14.25602041967225"
      },
      "geometry": {
        "type": "Point",
        "coordinates": [
          -101.9961410966918,
          17.78312049712826
        ]
      }
    },
    {
      "type": "Feature",
      "properties": {
        "norad_id": 30862,
        "name": "FENGYUN 1C DEB",
        "group": "fengyun-1c-debris",
        "lat": 3.1385556176441933,
        "lon": -86.55480012850232,
        "alt_km": 729.2915829050198,
        "timestamp": "2025-12-27T10:28:59.073690+00:00",
        "meta_object_name": "FENGYUN 1C DEB",
        "meta_object_id": "1999-025AWY",
        "meta_epoch": "2025-12-26T17:44:38.035104",
        "meta_mean_motion": 14.4335918,
        "meta_eccentricity": 0.00509019,
        "meta_inclination": 98.9557,
        "meta_ra_of_asc_node": 92.2168,
        "meta_arg_of_pericenter": 123.1374,
        "meta_mean_anomaly": 31.0423,
        "meta_ephemeris_type": 0,
        "meta_classification_type": "U",
        "meta_norad_cat_id": 30862,
        "meta_element_set_no": 999,
        "meta_rev_at_epoch": 96921,
        "meta_bstar": 0.0032168775,
        "meta_mean_motion_dot": 0.00010991,
        "meta_mean_motion_ddot": 0,
        "tle_line1": "1 30862U 99025AWY 25360.73932911  .00010991  00000+0  32169-2 0  9997",
        "tle_line2": "2 30862  98.9557  92.2168 0050901 123.1374  31.0423 14.43359180969216"
      },
      "geometry": {
        "type": "Point",
        "coordinates": [
          -86.55480012850232,
          3.1385556176441933
        ]
      }
    },
    {
      "type": "Feature",
      "properties": {
        "norad_id": 30863,
        "name": "FENGYUN 1C DEB",
        "group": "fengyun-1c-debris",
        "lat": 12.617641985114819,
        "lon": 11.091908817384429,
        "alt_km": 1046.7071758587654,
        "timestamp": "2025-12-27T10:28:59.073700+00:00",
        "meta_object_name": "FENGYUN 1C DEB",
        "meta_object_id": "1999-025AWZ",
        "meta_epoch": "2025-12-21T07:26:52.161216",
        "meta_mean_motion": 12.40539027,
        "meta_eccentricity": 0.0877249,
        "meta_inclination": 99.1205,
        "meta_ra_of_asc_node": 184.3542,
        "meta_arg_of_pericenter": 232.3747,
        "meta_mean_anomaly": 314.6544,
        "meta_ephemeris_type": 0,
        "meta_classification_type": "U",
        "meta_norad_cat_id": 30863,
        "meta_element_set_no": 999,
        "meta_rev_at_epoch": 59846,
        "meta_bstar": 0.0027378,
        "meta_mean_motion_dot": 1.406e-05,
        "meta_mean_motion_ddot": 0,
        "tle_line1": "1 30863U 99025AWZ 25355.31032594  .00001406  00000+0  27378-2 0  9991",
        "tle_line2": "2 30863  99.1205 184.3542 0877249 232.3747 314.6544 12.40539027598462"
      },
      "geometry": {
        "type": "Point",
        "coordinates": [
          11.091908817384429,
          12.617641985114819
        ]
      }
    },
    {
      "type": "Feature",
      "properties": {
        "norad_id": 30867,
        "name": "FENGYUN 1C DEB",
        "group": "fengyun-1c-debris",
        "lat": -0.8753682502737266,
        "lon": -93.03804020100829,
        "alt_km": 774.3519238580302,
        "timestamp": "2025-12-27T10:28:59.073711+00:00",
        "meta_object_name": "FENGYUN 1C DEB",
        "meta_object_id": "1999-025AXD",
        "meta_epoch": "2025-12-26T11:12:10.399392",
        "meta_mean_motion": 14.28151494,
        "meta_eccentricity": 0.0053275,
        "meta_inclination": 97.8766,
        "meta_ra_of_asc_node": 265.9653,
        "meta_arg_of_pericenter": 315.9723,
        "meta_mean_anomaly": 98.5555,
        "meta_ephemeris_type": 0,
        "meta_classification_type": "U",
        "meta_norad_cat_id": 30867,
        "meta_element_set_no": 999,
        "meta_rev_at_epoch": 96733,
        "meta_bstar": 0.0024549,
        "meta_mean_motion_dot": 6.167e-05,
        "meta_mean_motion_ddot": 0,
        "tle_line1": "1 30867U 99025AXD 25360.46678703  .00006167  00000+0  24549-2 0  9991",
        "tle_line2": "2 30867  97.8766 265.9653 0053275 315.9723  98.5555 14.28151494967331"
      },
      "geometry": {
        "type": "Point",
        "coordinates": [
          -93.03804020100829,
          -0.8753682502737266
        ]
      }
    },
    {
      "type": "Feature",
      "properties": {
        "norad_id": 30868,
        "name": "FENGYUN 1C DEB",
        "group": "fengyun-1c-debris",
        "lat": 18.109656932622837,
        "lon": -124.41185539350342,
        "alt_km": 942.3868718463873,
        "timestamp": "2025-12-27T10:28:59.073721+00:00",
        "meta_object_name": "FENGYUN 1C DEB",
        "meta_object_id": "1999-025AXE",
        "meta_epoch": "2025-12-25T03:00:10.115712",
        "meta_mean_motion": 14.11126234,
        "meta_eccentricity": 0.01358087,
        "meta_inclination": 98.2628,
        "meta_ra_of_asc_node": 236.1837,
        "meta_arg_of_pericenter": 177.1984,
        "meta_mean_anomaly": 345.1428,
        "meta_ephemeris_type": 0,
        "meta_classification_type": "U",
        "meta_norad_cat_id": 30868,
        "meta_element_set_no": 999,
        "meta_rev_at_epoch": 96885,
        "meta_bstar": 0.00015734601,
        "meta_mean_motion_dot": 2.7e-06,
        "meta_mean_motion_ddot": 0,
        "tle_line1": "1 30868U 99025AXE 25359.12511708  .00000270  00000+0  15735-3 0  9991",
        "tle_line2": "2 30868  98.2628 236.1837 0135808 177.1984 345.1428 14.11126234968852"
      },
      "geometry": {
        "type": "Point",
        "coordinates": [
          -124.41185539350342,
          18.109656932622837
        ]
      }
    },
    {
      "type": "Feature",
      "properties": {
        "norad_id": 30872,
        "name": "FENGYUN 1C DEB",
        "group": "fengyun-1c-debris",
        "lat": -64.045707146943,
        "lon": -144.57047617973487,
        "alt_km": 771.8192872597292,
        "timestamp": "2025-12-27T10:28:59.073731+00:00",
        "meta_object_name": "FENGYUN 1C DEB",
        "meta_object_id": "1999-025AXJ",
        "meta_epoch": "2025-12-27T02:48:19.074816",
        "meta_mean_motion": 14.39499299,
        "meta_eccentricity": 0.0040352,
        "meta_inclination": 99.1925,
        "meta_ra_of_asc_node": 54.5188,
        "meta_arg_of_pericenter": 345.7384,
        "meta_mean_anomaly": 43.4017,
        "meta_ephemeris_type": 0,
        "meta_classification_type": "U",
        "meta_norad_cat_id": 30872,
        "meta_element_set_no": 999,
        "meta_rev_at_epoch": 97943,
        "meta_bstar": 0.0010052,
        "meta_mean_motion_dot": 3.115e-05,
        "meta_mean_motion_ddot": 0,
        "tle_line1": "1 30872U 99025AXJ 25361.11688744  .00003115  00000+0  10052-2 0  9990",
        "tle_line2": "2 30872  99.1925  54.5188 0040352 345.7384  43.4017 14.39499299979436"
      },
      "geometry": {
        "type": "Point",
        "coordinates": [
          -144.57047617973487,
          -64.045707146943
        ]
      }
    },
    {
      "type": "Feature",
      "properties": {
        "norad_id": 30873,
        "name": "FENGYUN 1C DEB",
        "group": "fengyun-1c-debris",
        "lat": 3.4607542323258853,
        "lon": -178.14166637230224,
        "alt_km": 802.8729938117085,
        "timestamp": "2025-12-27T10:28:59.073740+00:00",
        "meta_object_name": "FENGYUN 1C DEB",
        "meta_object_id": "1999-025AXK",
        "meta_epoch": "2025-12-25T23:48:05.453856",
        "meta_mean_motion": 14.19149716,
        "meta_eccentricity": 0.01077411,
        "meta_inclination": 98.612,
        "meta_ra_of_asc_node": 359.9287,
        "meta_arg_of_pericenter": 250.1453,
        "meta_mean_anomaly": 108.8085,
        "meta_ephemeris_type": 0,
        "meta_classification_type": "U",
        "meta_norad_cat_id": 30873,
        "meta_element_set_no": 999,
        "meta_rev_at_epoch": 97380,
        "meta_bstar": 0.00018718205,
        "meta_mean_motion_dot": 3.71e-06,
        "meta_mean_motion_ddot": 0,
        "tle_line1": "1 30873U 99025AXK 25359.99172979  .00000371  00000+0  18718-3 0  9991",
        "tle_line2": "2 30873  98.6120 359.9287 0107741 250.1453 108.8085 14.19149716973802"
      },
      "geometry": {
        "type": "Point",
        "coordinates": [
          -178.14166637230224,
          3.4607542323258853
        ]
      }
    }
  ]
}